SPACEMOBILE-003         
1 61045U 24163A   26189.44417234  .00000657  00000+0  44099-4 0  9994
2 61045  52.9689 211.6870 0005512 175.5813 184.5231 15.20786252101009
SPACEMOBILE-005         
1 61046U 24163B   26189.55906081  .00009176  00000+0  42522-3 0  9993
2 61046  52.9798 211.1011 0008924 177.1519 182.9528 15.20764273101015
SPACEMOBILE-001         
1 61047U 24163C   26189.49183679  .00000562  00000+0  39835-4 0  9991
2 61047  52.9747 211.1260 0007521 173.6655 186.4436 15.20812105101004
SPACEMOBILE-002         
1 61048U 24163D   26189.47585076  .00004194  00000+0  20198-3 0  9993
2 61048  52.9765 211.2391 0006729 173.3276 186.7809 15.20856992101005
SPACEMOBILE-004         
1 61049U 24163E   26187.48682539  .00011231  00000+0  51661-3 0  9994
2 61049  52.9667 220.1743 0007073 196.8401 163.2360 15.20801145100708
SPACEMOBILE-001 DEB     
1 62369U 24163F   26189.99512345  .00005697  00000+0  17459-3 0  9991
2 62369  52.9917 176.6619 0005954 229.0504 130.9982 15.35307324 89857
SPACEMOBILE-002 DEB     
1 62370U 24163G   26189.42321220  .00014113  00000+0  31715-3 0  9995
2 62370  52.9406 163.9171 0004473 260.5662  99.4836 15.43630312101648
SPACEMOBILE-003 DEB     
1 62371U 24163H   26189.64170933  .00014206  00000+0  34383-3 0  9990
2 62371  52.9682 169.6526 0005675 212.5674 147.4980 15.41385961 95198
SPACEMOBILE-004 DEB     
1 62372U 24163J   26189.65697374  .00009879  00000+0  24828-3 0  9998
2 62372  52.9831 169.1871 0002854 235.6793 124.3940 15.40634625 98261
SPACEMOBILE-005 DEB     
1 62373U 24163K   26189.68878737  .00005647  00000+0  17718-3 0  9995
2 62373  52.9730 182.9806 0005912 205.8684 154.2021 15.34572710101421
SPACEMOBILE-006         
1 67232U 25309A   26189.16910173  .00000190  00000+0  24444-4 0  9994
2 67232  52.9947 235.5229 0010630 192.2291 167.8446 15.18644437 29787
SPACEMOBILE-008         
1 69589U 26139A   26189.41414475  .00000553  00000+0  48131-4 0  9997
2 69589  52.9938 166.1941 0004704  40.1803 319.9535 15.12795607  3195
SPACEMOBILE-009         
1 69590U 26139B   26189.34955796  .00000530  00000+0  46945-4 0  9993
2 69590  52.9928 166.4987 0004937  35.3944 324.7374 15.12688799  3186
SPACEMOBILE-010         
1 69591U 26139C   26189.41798456  .00000482  00000+0  44398-4 0  9996
2 69591  52.9933 166.2159 0004820  26.6938 333.4300 15.12519992  3206
